STARLETTE               
1 07646U 75010A   08107.91133944 -.00000171  00000-0 -20497-4 0  5955
2 07646  49.8253  13.2695 0205901 104.8271 257.5527 13.82269363676726
LAGEOS 1                
1 08820U 76039A   08107.52232419 -.00000004  00000-0  10000-3 0  5925
2 08820 109.8555  66.2744 0044573 282.5315  77.0134  6.38664711489792
EGP                     
1 16908U 86061A   08108.23737052 -.00000083  00000-0  10000-3 0  5780
2 16908  50.0117  28.6527 0011287 212.4545 147.5596 12.44459911654565
LAGEOS 2                
1 22195U 92070B   08107.22424611 -.00000009  00000-0  10000-3 0  8000
2 22195  52.6412 140.7000 0137760 165.6613 194.7909  6.47294400366027
STELLA                  
1 22824U 93061B   08107.03415553  .00000040  00000-0  33525-4 0  9557
2 22824  98.4201  63.6724 0007181 111.3031 248.8921 14.27280017758252
WESTPAC                 
1 25398U 98043E   08107.07444855 -.00000040  00000-0  52454-6 0  2145
2 25398  98.3706 144.4851 0002074  50.0999 310.0378 14.22670017507288
GRACE 1                 
1 27391U 02012A   08108.14683392  .00000678  00000-0  19652-4 0  8717
2 27391  89.0070  60.0426 0015252 332.6414  27.4003 15.33790538340001
GRACE 2                 
1 27392U 02012B   08108.14645399  .00000719  00000-0  20903-4 0  8710
2 27392  89.0070  60.0533 0016323 334.4607  25.5811 15.33790132340001
